NORAD_CAT_ID,OBJECT_NAME,OBJECT_TYPE,EPOCH,MEAN_MOTION,ECCENTRICITY,INCLINATION,RA_OF_ASC_NODE,ARG_OF_PERICENTER,MEAN_ANOMALY,BSTAR,MEAN_MOTION_DOT,MEAN_MOTION_DDOT,TLE_LINE0,TLE_LINE1,TLE_LINE2,SEMIMAJOR_AXIS,PERIOD,APOGEE,PERIGEE,DECAYED
49148.0,STARLINK-3048,PAYLOAD,2022-02-28 14:00:01,15.14765867,0.0003356,69.9999,20.5226,279.3269,140.914,-0.038339,-0.00667536,0.0,0 STARLINK-3048,1 49148U 21082U   22059.58334491 -.00667536  00000-0 -38339-1 0  9996,2 49148  69.9999  20.5226 0003356 279.3269 140.9140 15.14765867  3632,6899.826,95.064,524.007,519.376,0.0
49148.0,STARLINK-3048,PAYLOAD,2022-02-28 22:00:00,15.14296882,0.0003515,70.0001,19.6603,286.891,150.2591,-0.038634,-0.00664056,0.0,0 STARLINK-3048,1 49148U 21082U   22059.91667824 -.00664056  00000-0 -38634-1 0  9994,2 49148  70.0001  19.6603 0003515 286.8910 150.2591 15.14296882  3629,6901.251,95.094,525.5419999999998,520.69,0.0
49148.0,STARLINK-3048,PAYLOAD,2022-03-01 04:00:00,15.13946957,0.000343,69.9999,19.014,284.4927,74.9708,-0.039104,-0.00665427,0.0,0 STARLINK-3048,1 49148U 21082U   22060.16667824 -.00665427  00000-0 -39104-1 0  9999,2 49148  69.9999  19.0140 0003430 284.4927  74.9708 15.13946957 27497,6902.314,95.116,526.547,521.812,0.0
49148.0,STARLINK-3048,PAYLOAD,2022-03-01 14:00:01,15.13363304,0.0003268,69.9999,17.9373,279.3076,189.9779,-0.039856,-0.00667041,0.0,0 STARLINK-3048,1 49148U 21082U   22060.58334491 -.00667041  00000-0 -39856-1 0  9994,2 49148  69.9999  17.9373 0003268 279.3076 189.9779 15.13363304  3622,6904.089,95.152,528.21,523.698,0.0
49148.0,STARLINK-3048,PAYLOAD,2022-03-01 22:00:01,15.12894587,0.000341,70.0002,17.0768,286.753,197.8229,-0.040214,-0.00664425,0.0,0 STARLINK-3048,1 49148U 21082U   22060.91668981 -.00664425  00000-0 -40214-1 0  9998,2 49148  70.0002  17.0768 0003410 286.7530 197.8229 15.12894587  3646,6905.515,95.182,529.735,525.025,0.0
49148.0,STARLINK-3048,PAYLOAD,2022-03-02 12:00:00,15.12077583,0.0003329,69.9998,15.5724,279.5421,140.2686,-0.041287,-0.00666585,0.0,0 STARLINK-3048,1 49148U 21082U   22061.50001157 -.00666585  00000-0 -41287-1 0  9990,2 49148  69.9998  15.5724 0003329 279.5421 140.2686 15.12077583 27699,6908.002,95.233,532.1669999999998,527.567,0.0
49148.0,STARLINK-3048,PAYLOAD,2022-03-02 14:00:01,15.11960657,0.0003208,69.9999,15.3576,279.6777,233.6068,-0.041417,-0.00666496,0.0,0 STARLINK-3048,1 49148U 21082U   22061.58334491 -.00666496  00000-0 -41417-1 0  9994,2 49148  69.9999  15.3576 0003208 279.6777 233.6068 15.11960657  3613,6908.358,95.241,532.439,528.007,0.0
49148.0,STARLINK-3048,PAYLOAD,2022-03-02 22:00:00,15.11492372,0.0003354,70.0002,14.499,286.7977,240.0321,-0.041842,-0.00664741,0.0,0 STARLINK-3048,1 49148U 21082U   22061.91667824 -.00664741  00000-0 -41842-1 0  9993,2 49148  70.0002  14.4990 0003354 286.7977 240.0321 15.11492372  3634,6909.785,95.27,533.9680000000002,529.332,0.0
49148.0,STARLINK-3048,PAYLOAD,2022-03-03 14:00:01,15.10558036,0.0003151,69.9999,12.7835,279.482,272.7558,-0.043031,-0.00666019,0.0,0 STARLINK-3048,1 49148U 21082U   22062.58334491 -.00666019  00000-0 -43031-1 0  9990,2 49148  69.9999  12.7835 0003151 279.4820 272.7558 15.10558036  3639,6912.634,95.329,536.677,532.321,0.0
49148.0,STARLINK-3048,PAYLOAD,2022-03-03 18:00:00,15.10321933,0.0003523999999999,69.9999,12.3552,287.6803,90.5598,-0.043004,-0.00661604,0.0,0 STARLINK-3048,1 49148U 21082U   22062.75001157 -.00661604  00000-0 -43004-1 0  9994,2 49148  69.9999  12.3552 0003524 287.6803  90.5598 15.10321933 27884,6913.354,95.344,537.656,532.783,0.0
49148.0,STARLINK-3048,PAYLOAD,2022-03-03 22:00:00,15.10090156,0.0003365,70.0002,11.9268,288.4190000000001,275.682,-0.043518,-0.00664992,0.0,0 STARLINK-3048,1 49148U 21082U   22062.91667824 -.00664992  00000-0 -43518-1 0  9994,2 49148  70.0002  11.9268 0003365 288.4190 275.6820 15.10090156  3633,6914.062,95.359,538.253,533.6,0.0
49148.0,STARLINK-3048,PAYLOAD,2022-03-04 14:00:01,15.09155284,0.0003157,70.0,10.2149,279.8579,306.3504,-0.04469,-0.00665479,0.0,0 STARLINK-3048,1 49148U 21082U   22063.58335648 -.00665479  00000-0 -44690-1 0  9997,2 49148  70.0000  10.2149 0003157 279.8579 306.3504 15.09155284  3638,6916.917,95.418,540.966,536.5980000000002,0.0
49148.0,STARLINK-3048,PAYLOAD,2022-03-04 20:00:03,15.0880429,0.0003376,70.0002,9.5738,288.1727,215.7868,-0.045035,-0.00664291,0.0,0 STARLINK-3048,1 49148U 21082U   22063.83336806 -.00664291  00000-0 -45035-1 0  9997,2 49148  70.0002   9.5738 0003376 288.1727 215.7868 15.08804290 28052,6917.99,95.44,542.19,537.519,0.0
49148.0,STARLINK-3048,PAYLOAD,2022-03-04 22:00:00,15.08687728,0.0003338,70.0003,9.3601,286.8265,309.5001,-0.045222,-0.00664876,0.0,0 STARLINK-3048,1 49148U 21082U   22063.91667824 -.00664876  00000-0 -45222-1 0  9990,2 49148  70.0003   9.3601 0003338 286.8265 309.5001 15.08687728  3622,6918.346,95.447,542.52,537.9019999999998,0.0
49148.0,STARLINK-3048,PAYLOAD,2022-03-05 06:00:00,15.08217979,0.0003187,70.0,8.5057,281.35900000000004,324.5891,-0.045543,-0.00661261,0.0,0 STARLINK-3048,1 49148U 21082U   22064.25001157 -.00661261  00000-0 -45543-1 0  9990,2 49148  70.0000   8.5057 0003187 281.3590 324.5891 15.08217979  3629,6919.781999999997,95.477,543.8530000000002,539.442,0.0
49148.0,STARLINK-3048,PAYLOAD,2022-03-05 14:00:01,15.077524800000004,0.0003171,70.0,7.652,279.2265,335.7809,-0.046398,-0.00664918,0.0,0 STARLINK-3048,1 49148U 21082U   22064.58334491 -.00664918  00000-0 -46398-1 0  9997,2 49148  70.0000   7.6520 0003171 279.2265 335.7809 15.07752480  3603,6921.206999999999,95.506,545.266,540.877,0.0
49148.0,STARLINK-3048,PAYLOAD,2022-03-05 22:00:01,15.07285245,0.00034,70.0002,6.799,288.1275,335.4418,-0.04698,-0.00664779,0.0,0 STARLINK-3048,1 49148U 21082U   22064.91668981 -.00664779  00000-0 -46980-1 0  9990,2 49148  70.0002   6.7990 0003400 288.1275 335.4418 15.07285245  3648,6922.637,95.536,546.855,542.148,0.0
49148.0,STARLINK-3048,PAYLOAD,2022-03-06 04:00:00,15.06933257,0.0003218,70.0,6.1597,284.4453,255.0684,-0.047315,-0.00663224,0.0,0 STARLINK-3048,1 49148U 21082U   22065.16667824 -.00663224  00000-0 -47315-1 0  9990,2 49148  70.0000   6.1597 0003218 284.4453 255.0684 15.06933257 28255,6923.715,95.558,547.808,543.352,0.0
49148.0,STARLINK-3048,PAYLOAD,2022-03-06 14:00:01,15.0634962,0.0003196,70.0,5.0947,278.2486,0.5751,-0.048154,-0.00664309,0.0,0 STARLINK-3048,1 49148U 21082U   22065.58334491 -.00664309  00000-0 -48154-1 0  9994,2 49148  70.0000   5.0947 0003196 278.2486   0.5751 15.06349620  3610,6925.503000000002,95.595,549.581,545.155,0.0
49148.0,STARLINK-3048,PAYLOAD,2022-03-06 22:00:00,15.05882678,0.0003444,70.0002,4.2435,288.2290000000001,357.4117,-0.048778,-0.0066449,0.0,0 STARLINK-3048,1 49148U 21082U   22065.91667824 -.00664490  00000-0 -48778-1 0  9993,2 49148  70.0002   4.2435 0003444 288.2290 357.4117 15.05882678  3620,6926.935,95.625,551.185,546.414,0.0
49148.0,STARLINK-3048,PAYLOAD,2022-03-07 12:00:00,15.05064802,0.000315,69.9998,2.7553,281.7053,284.5169,-0.049947,-0.00665476,0.0,0 STARLINK-3048,1 49148U 21082U   22066.50001157 -.00665476  00000-0 -49947-1 0  9994,2 49148  69.9998   2.7553 0003150 281.7053 284.5169 15.05064802 28450,6929.444,95.677,553.492,549.126,0.0
49148.0,STARLINK-3048,PAYLOAD,2022-03-07 22:00:00,15.04480101,0.0003465,70.0002,1.6935,288.268,14.4613,-0.050637,-0.00664273,0.0,0 STARLINK-3048,1 49148U 21082U   22066.91667824 -.00664273  00000-0 -50637-1 0  9990,2 49148  70.0002   1.6935 0003465 288.2680  14.4613 15.04480101  3605,6931.239000000001,95.714,555.506,550.702,0.0
49148.0,STARLINK-3048,PAYLOAD,2022-03-08 14:00:01,15.03543814,0.0003267,70.0,359.9966,280.1137,31.2053,-0.051808,-0.0066289,0.0,0 STARLINK-3048,1 49148U 21082U   22067.58334491 -.00662890  00000-0 -51808-1 0  9999,2 49148  70.0000 359.9966 0003267 280.1137  31.2053 15.03543814  3621,6934.116,95.774,558.247,553.716,0.0
49148.0,STARLINK-3048,PAYLOAD,2022-03-08 20:00:01,15.0319511,0.0003348999999999,70.0002,359.361,288.3599,295.6007,-0.052449,-0.00664763,0.0,0 STARLINK-3048,1 49148U 21082U   22067.83334491 -.00664763  00000-0 -52449-1 0  9990,2 49148  70.0002 359.3610 0003349 288.3599 295.6007 15.03195110 28653,6935.189,95.796,559.376,554.731,0.0
49148.0,STARLINK-3048,PAYLOAD,2022-03-08 22:00:00,15.03077491,0.0003468,70.0002,359.149,287.8185,26.9535,-0.052552,-0.00664047,0.0,0 STARLINK-3048,1 49148U 21082U   22067.91667824 -.00664047  00000-0 -52552-1 0  9998,2 49148  70.0002 359.1490 0003468 287.8185  26.9535 15.03077491  3626,6935.55,95.803,559.821,555.01,0.0
49148.0,STARLINK-3048,PAYLOAD,2022-03-09 14:00:01,15.0212562,0.0003262,70.0,357.4559,278.817,41.1843,-0.050709,-0.00627087,0.0,0 STARLINK-3048,1 49148U 21082U   22068.58334491 -.00627087  00000-0 -50709-1 0  9998,2 49148  70.0000 357.4559 0003262 278.8170  41.1843 15.02125620  3636,6938.48,95.864,562.6080000000002,558.082,0.0
49148.0,STARLINK-3048,PAYLOAD,2022-03-09 20:00:01,15.01656545,0.0003377,70.0002,356.82199999999995,288.9451,302.4524,-0.010489,-0.00134038,0.0,0 STARLINK-3048,1 49148U 21082U   22068.83334491 -.00134038  00000-0 -10489-1 0  9996,2 49148  70.0002 356.8220 0003377 288.9451 302.4524 15.01656545 28806,6939.925,95.894,564.133,559.446,0.0
49148.0,STARLINK-3048,PAYLOAD,2022-03-09 22:00:01,15.01584367,0.0003375,70.0002,356.6106,288.7081,33.1318,-0.0019877,-0.0002582,0.0,0 STARLINK-3048,1 49148U 21082U   22068.91668981 -.00025820  00000-0 -19877-2 0  9998,2 49148  70.0002 356.6106 0003375 288.7081  33.1318 15.01584367  3615,6940.147,95.899,564.355,559.67,0.0
49148.0,STARLINK-3048,PAYLOAD,2022-03-10 04:00:01,15.0135721,0.0003255,69.9998,355.9789,282.9566,310.0409,0.023132,0.00312188,0.0,0 STARLINK-3048,1 49148U 21082U   22069.16668981  .00312188  00000-0  23132-1 0  9998,2 49148  69.9998 355.9789 0003255 282.9566 310.0409 15.01357210 28852,6940.847,95.913,564.971,560.453,0.0
